Name,Address,Suburb,Postcode,LGA,Licensee,Licensee ABN,Facebook Link,Instagram link,Email Address,Additional Email,Phone Number
THE SLEEPY BARN,569 POTTSVILLE RD ,SLEEPY HOLLOW,2483,Tweed,Kylie Ryan-Milroy,,https://www.facebook.com/profile.php?id=61555956668047&mibextid=ZbWKwL,,,,0411 639 956
Jiggle Korean BBQ,Suite 2/118-124 Leura Mall ,LEURA,2780,Blue Mountains,HANJAY PTY LTD,23668031196.0,http://jigglebbqleura.com/,,,,(02) 4782 7672
THE AUTHOR,UNIT 4 51 ARTHUR ST ,FORESTVILLE,2087,Northern Beaches,SG1 TRADING PTY LTD,76676169510.0,https://theauthor.au/,,,,0430 589 304
The Shearer’s Cook,8 STIRLING ST ,SILVERTON,2880,Unincorporated - Far West Area,Adam Watson,,,,,,
Beleaf Table,UNIT 2 111 NORTH ST ,NOWRA,2541,Shoalhaven,Arisara Chatwatcharapaisit,,http://www.beleaftable.com/,,,,(02) 4421 5655
Sydney Oyster Tours,14 bloomsbury ave ,PYMBLE,2083,Ku-ring-gai,Sheridan Beaumont,,,,,,
SUSHI SORA,SHOP 3 29 FOAMCREST ,NEWPORT,2106,Northern Beaches,PARK & HAM HOLDINGS PTY LTD,36658292641.0,https://www.sorasushi.com.au/,,,,(02) 7227 5225
Kombi Keg Albury/Wodonga Wagga,40 SHEA RD ,MULLENGANDRA,2644,Greater Hume,Samuel Murray,,,,,,
Neon Mango Diner,"Shop 6, 5 Snapper Drive ",LENNOX HEAD,2479,Ballina,JMW LENNOX PTY LTD,26666241925.0,http://order-neonmango.square.site/,,,,0493 754 806
Lalin Thai Kitchen,SHOP 1 100-104 HARBOUR DR ,COFFS HARBOUR,2450,Coffs Harbour,Darren Mcintyre,,,,,,(02) 6651 7869
Sugar Valley Library Museum,156 PORTLAND DR ,CAMERON PARK,2285,Lake Macquarie,Chloe O'Reilly,,https://library.lakemac.com.au/Sugar-Valley-Library-Museum-kirantakamyari,,,,
Broken Hill Greyhound Racing Club Inc,717 LANE ST ,BROKEN HILL,2880,Broken Hill,Kerry Edgecumbe,,,,,,0448 871 925
Monaro Panthers Sporting Club Liquor Licence,1 CARINYA ST ,QUEANBEYAN,2620,Queanbeyan-Palerang Regional,Roberto Guglielmin,,,,,,
The Perfect Pour,10 FRANCO DR ,GRIFFITH,2680,Griffith,Kylie Barrington,,https://www.theperfectpour.au/,,,,0408 275 594
Crumb Cafe,UNIT 2 268 BEACH RD ,BATEHAVEN,2536,Eurobodalla,Tammie-Lee Goodliffe,,http://www.facebook.com/cafeatbatehaven,,,,(02) 4472 1486
COOLAMON SHIRE COUNCIL,127-129 COWABBIE ST ,COOLAMON,2701,Coolamon,Laura Munro,,,,,,
Culcairn Cricket Club Incorporated,4 FEDERAL ST ,CULCAIRN,2660,Greater Hume,Vincent Chaffey,,,,,,(02) 6029 7656
Coffs Harbour Junior Rugby Union Club,600a Hogbin Drive ,TOORMINA,2452,Coffs Harbour,John Cox,,,,,,
Once Again Asian Eatery, Shop 1-2 10 Kurrawyba ,Terrigal,2260,Central Coast,Yanavadee Chatiganon,,http://www.facebook.com/onceagainterrigal,,,,0452 445 249
Kopi Lennox,UNIT 1 70 BALLINA ST ,LENNOX HEAD,2478,Ballina,Jack Lees-Smith,,http://www.kopilennox.com.au/,,,,0492 870 448
RAFTERS CAFE & RESTAURANT,87 MALPAS ST ,GUYRA,2365,Armidale Regional,THE GUYRA DINER PTY LTD,86683742298.0,,,,,(02) 6775 0207
bonza Eat & Drink Pty Ltd,53 STUART ST ,MULLUMBIMBY,2482,Byron,Daniel Ippoliti,,,,,,
Queanbeyan City Football Club,17-21 HIGH ST ,QUEANBEYAN EAST,2620,Queanbeyan-Palerang Regional,Charles Ban,,https://www.qprc.nsw.gov.au/Facilities-Recreation/Parks-Playgrounds-Sportsgrounds/High-Street-Playing-Field,,,,
Millthorpe Village Committee,1 PYM ST ,MILLTHORPE,2798,Blayney,Richard Beach,,https://millthorpevillage.com.au/,,,,
Cafe Deja Vu Food To Remember,20 VICTORY PDE ,TORONTO,2283,Lake Macquarie,Jittima Dunda,,https://www.facebook.com/cafedejavutoronto/,,,,(02) 4959 4118
DNA Distillery,UNIT 18 47 ALLINGHAM ST ,CONDELL PARK,2200,Canterbury-Bankstown,Monique Sutevski,,,,,,
Scala Lane,Shop 2/34-36 Carrington Street ,SYDNEY,2000,Sydney,36 WYNYARD LANE PTY LTD,91680313062.0,https://scalalane.com/,,,,0436 648 985
Yass Roos AFC,16 LAIDLAW ST ,YASS,2582,Yass Valley,Jenene Forlonge,,,,,,0412 287 810
THE SWORDFISH CO BUDGEWOI,1 BUDGEWOI CIR ,BUDGEWOI,2262,Central Coast,Garry Risteski,,https://www.theswordfishco.com.au/,,,,(02) 4044 0541
Sunny Ridge Golf Club,136 BURNT YARDS RD ,MANDURAMA,2792,Blayney,SUNNY RIDGE (MANDURAMA) GOLF CLUB LTD,52001041167.0,,,,,(02) 6367 4412
ALBA DEE WHY,16 THE STRAND ,DEE WHY,2099,Northern Beaches,PALISADE HOTEL HOLDINGS PTY LTD,70620981795.0,,,,,
GUZMAN Y GOMEZ NOWRA,122 PLUNKETT ST ,NOWRA,2541,Shoalhaven,Agustin Grillo,,https://www.guzmanygomez.com.au/?y_source=1_MTAwNDY1MTUxOS03MTUtbG9jYXRpb24ud2Vic2l0ZQ%3D%3D,,,,(02) 4622 9335
Bronte Belo Diamond Beach,15 DIAMOND DR ,DIAMOND BEACH,2430,Mid-Coast,BELO FOOD'S PTY. LTD.,98606515299.0,http://www.brontebelo.com.au/,,,,0475 235 698
In forno Charlestown,"Level 2 Shop 2095, 30 Pearson Sreet ",CHARLESTOWN,2290,Lake Macquarie,Harpreet Malhi,,https://inforno.com.au/,,,,(02) 4961 4031
The Irish Shop,20 ANGUS AV ,KANDOS,2848,Mid-Western Regional,DURROW AUSTRALIA PTY LTD,44142678671.0,,,,,(02) 5356 4614
Croatia Football Club Incorporated (Newcastle Croatia Football Club),95 PASEDENA CR ,BERESFIELD,2322,Newcastle,Michael Gudelj,,,,,,(02) 4961 3177
Wauchope District Rugby league,Beechwood Road ,WAUCHOPE,2446,Port Macquarie-Hastings,Lisa Hoffman,,https://www.wauchopethunderrugby.com.au/,,,,0438 282 480
Hanok Korean BBQ WAGGA WAGGA,85 BAYLIS ST ,WAGGA WAGGA,2650,Wagga Wagga,HANOK WAGGA WAGGA PTY LTD,19651002078.0,,,,,0468 753 888
Glen Innes Rugby League Club,Potter Parade ,GLEN INNES,2370,Glen Innes Severn,Samuel Schiffmann,,,,,,
Maybe Mable,173 MAIN ST ,WEST WYALONG,2671,Bland,Christopher Hawe,,,,,,
The Tea Club,46 BERRY ST ,NOWRA,2541,Shoalhaven,LOREENA DOUMBOS,,,,,,(02) 4424 0120
Elwood's Eatery,141A -147 Peisley St ,Orange,2800,Orange,Benjamin Allcock,,http://www.mryum.com/elwoods-eatery,,,,(02) 6360 2880
Hotel Marvell,4 MARVELL ST ,BYRON BAY,2481,Byron,MARVELL STREET INVESTMENTS PTY LTD,83612094005.0,https://www.hotelmarvell.com.au/?utm_source=GMB&utm_medium=organic,,,,(02) 6685 7385
Guzman y Gomez Tamworth,226 BRIDGE ST ,WEST TAMWORTH,2340,Tamworth Regional,Keyla Goncalves Zambrano,,https://www.guzmanygomez.com.au/locations/Tamworth?y_source=1_MTAwMTczODQ4NC03MTUtbG9jYXRpb24ud2Vic2l0ZQ%3D%3D,,,,(02) 4622 9322
Ganmain Grong Grong Matong Football Netball Club,69 WATERVIEW ST ,GANMAIN,2702,Coolamon,JASON LINSELL,,,,,,
Erina Ice Arena,620-658 Terrigal Drive ,ERINA,2250,Central Coast,Adele Leghorn,,http://www.erinaicearena.com.au/,,,,0409 504 896
Wildwood Kangaroo Valley,407D BENDEELA RD ,KANGAROO VALLEY,2577,Shoalhaven,WILDWOOD KANGAROO VALLEY PTY LTD,19651055560.0,http://www.kangaroovalleycountrywedding.com.au/,,,,0477 662 785
Three66 Espresso,366 George Bass Dr ,LILLI PILLI,2229,Eurobodalla,THREESIXSIX ESPRESSO BAR PTY LTD,17669432928.0,https://three66.mobi-order.com/,,,,(02) 4471 3947
Tweed Coast Raiders Senior Rugby League football club,LOT 499 TWEED COAST RD ,BOGANGAR,2488,Tweed,Bridey McNeven,,,,,,
Butcher Shop Café Mudgee,47 CHURCH ST ,MUDGEE,2850,Mid-Western Regional,Tayla O’Leary,,https://www.instagram.com/the_butchershopcafe_mudgee/,,,,0402 342 933
Sunny's Chickens,UNIT 5 33-35 BLACKWALL RD ,WOY WOY,2256,Central Coast,Tanaji VELGEKAR,,http://www.sunnyschickens.com.au/,,,,(02) 4309 3333
Picton Magpies RLFC,187 Menangle Street ,PICTON,2571,Wollondilly,Suzanne Brabender,,,,,,(02) 4677 1100
60MLS,35 PARRY AV ,TERRIGAL,2260,Central Coast,Timothy Fakes,,,,,,
Kame House,729 PACIFIC HWY ,GORDON,2072,Ku-ring-gai,XYZ KAME HOUSE PTY LTD,96663109500.0,https://kamehouse.com.au/,,,,(02) 8376 4328
Drift Tathra,61B ANDY POOLE DR ,TATHRA,2550,Bega Valley,Daniel Ryan,,https://drifttathra.com.au/,,,,(02) 6419 5680
Guzman y Gomez Lake Haven,Tenancy Ext04/43 Lake Haven Drive ,LAKE HAVEN,2263,Central Coast,LAKE HAVEN DT PTY LTD,28663747582.0,https://www.guzmanygomez.com.au/locations/lake-haven/?y_source=1_ODgwMjg2MzMtNzE1LWxvY2F0aW9uLndlYnNpdGU%3D,,,,(02) 4305 1523
Schnitz - Cameron Park,SHOP 14/309  GEORGE BOOTH DR ,CAMERON PARK,2285,Lake Macquarie,SCHNITZ CAMERON PARK PTY LTD,82659553698.0,https://schnitz.com.au/,,,,(02) 4072 2106
APRA CURRY HOUSE,456 BANNA AV ,GRIFFITH,2680,Griffith,Paramjit Kaur,,https://apracurryhouseonline.com.au/,,,,0403 234 290
Wylde Oak Cafe,16 WAKELANDS RD ,SAPPHIRE BEACH,2450,Coffs Harbour,Benjamin Wilson,,,,,,(02) 5671 0913
Argyle Hotel,205 RIVER ST ,MACLEAN,2463,Clarence Valley,ARGYLE HOTEL MACLEAN PTY LTD,72680899530.0,https://www.argylehotel.com.au/,,,,(02) 6645 8858
Norman J Martin,23 BATAR CREEK RD ,KENDALL,2439,Port Macquarie-Hastings,Norman John Martin,,,,,,
Geisen Holdings Pty Ltd,148 MANNERS ST ,TENTERFIELD,2372,Tenterfield,Kerri Hampton,,,,,,
BLACK HONEY & BREW,SHOP 3 18 OCEAN ST ,NARRABEEN,2101,Northern Beaches,MANDEEP PTY LTD,50621106732.0,https://blackhoney.com.au/,,,,(02) 9913 7491
SOL PADEL THURGOONA,16 EVESHAM PL ,THURGOONA,2640,Albury,PURTLE PADEL PTY LTD,86650923890.0,http://www.solpadel.com.au/,,,,0498 797 290
SWAAD PUNJAB DA,198 BANNA AV ,GRIFFITH,2680,Griffith,Hiteshwar Lal,,https://demapscompany.org/griffith/171698-swaad-punjab-da,,,,0467 442 147
Glenrock Events PTY LTD,84 ROBINSONS LANE ,TENTERFIELD,2372,Tenterfield,Glenrock Events Pty Ltd,16612321703.0,https://www.glenrockgardens.com.au/,,,,0411 304 070
Pasta buoy Huskisson,60 OWEN ST ,HUSKISSON,2540,Shoalhaven,AVOKA PTY LTD,14659132000.0,https://www.pastabuoy.com/,,,,0417 212 511
Coffs Harbour Rugby Union Club,600A HOGBIN DR ,TOORMINA,2452,Coffs Harbour,NATHAN HARDAKER,,,,,,
The Beach House Functions,138 EAST WEST RD ,VALLA,2448,Nambucca Valley,Jeliton PTY,50722078632.0,http://www.beachhouseprovidore.com/,,,,(02) 6569 6617
Temora Rugby League Football Club,65-75 GALLIPOLI ST ,TEMORA,2666,Temora,Robert Fisher,,,,,,
Moree indian Restaurant,78 BALO ST ,MOREE,2400,Moree Plains,BAJGAIN GROUP PTY LIMITED,76685218446.0,http://moreeindianrestaurant.com/,,,,(02) 6752 6446
HOMESLICE PIZZA BAR,SHOP 3 6-14 CLARENCE ST ,PORT MACQUARIE,2444,Port Macquarie-Hastings,Brendon O'Hare,,https://homeslice-pizza-bar.square.site/?fbclid=PAAaaQl3uufz7ZGD3-lZv8Bh0sOetQZxFGMhz-FXh6hd7RKTvqp1qKndJKzV8,,,,0491 062 930
Fresko Cafe,12 JACKSONS RD ,WARRIEWOOD,2102,Northern Beaches,CAFE WARRIEWOOD PTY LTD,32663886995.0,https://www.instagram.com/freskocafewarriewood/,,,,
cafe 5911,167 AUBURN ST ,GOULBURN,2580,Goulburn Mulwaree,Vishal Oberoi,,https://cafe5911.com.au/menu,,,,(02) 4856 8844
Bendalong General Store & Cafe,20 WARATAH ST ,BENDALONG,2539,Shoalhaven,PHOSFOURUS PTY LTD,58604556998.0,http://bendalongstoreandcafe.com.au/,,,,(02) 4456 1113
Baker Bleu Sydney,SHOP 1 2 GUILFOYLE AV ,DOUBLE BAY,2028,Woollahra,NPMR PTY LTD,16648177271.0,http://www.bakerbleu.com.au/,,,,1300 225 372
The Ark Newcastle,UNIT 3 18 THROSBY ST ,WICKHAM,2293,Newcastle,Atul Gulati,,https://thearknewcastle.square.site/,,,,(02) 4961 6386
FLINDERS ROSE CAFE,16 YAMBA ST ,YAMBA,2464,Clarence Valley,DW & KB ALLAN PTY LTD,11087320698.0,https://www.flindersrose.com.au/,,,,(02) 6646 3909
Cue and Crew Tuggerah Pty Ltd,Unit 1/ 2 Reliance Drive ,TUGGERAH,2259,Central Coast,Christopher Davis,,https://cueandcrew.com.au/,,,,(02) 4072 1477
Verde Eatery,Level 1/8 Little Street ,FORSTER,2428,Mid-Coast,Vanessa NARDI,,,,,,(02) 5591 7079
Guzman y Gomez Orange,2-6 BATHURST RD ,ORANGE,2800,Orange,EL DORADO MANAGEMENT PTY LTD,62661167479.0,https://www.guzmanygomez.com.au/locations/orange/?y_source=1_Njc0MzMwOTctNzE1LWxvY2F0aW9uLndlYnNpdGU%3D,,,,(02) 7257 6991
Explorers Restaurant,2 Mungindi ,Moree,2400,Moree Plains,Yuan WANG,,,,,,(02) 6752 3377
Charmed by hanuman Thai,"Shop 2-4, 786-788 Pacific Highway ",GORDON,2072,Ku-ring-gai,CHARMED GANESHA PTY LTD,15659863153.0,https://www.charmedthai.com.au/gordon/,,,,(02) 9418 2671
"fish , beer and bubbles",UNIT 2 90 TERRIGAL ESP ,TERRIGAL,2260,Central Coast,"FISH, BEER & BUBBLES PTY LTD",82658861020.0,,,,,0407 677 366
The Brightside,1 SURFVIEW RD ,MONA VALE,2103,Northern Beaches,SURFVIEW PTY LTD,84657779818.0,http://www.nineyardscoffee.com.au/,,,,
Costa Taco,20 JONSON ST ,BYRON BAY,2481,Byron,STANLEY FOOD GROUP PTY LTD,30632206083.0,http://www.costa-taco.com/,,,,
Peter and Eva woodfired Pizza and italian Restaurant,SHOP 2 52 OWEN ST ,HUSKISSON,2540,Shoalhaven,Maria Eva Guareri,,https://petereva.com.au/?utm_source=google&utm_medium=organic&utm_campaign=gmb,,,,0422 100 541
Fat Cow Hunter Valley Pty Ltd,16 POKOLBIN MOUNTAINS RD ,POKOLBIN,2320,Cessnock,Peter Kouwenhoven,,,,,,0451 530 902
The Grill Taree,11 BEETON PDE ,TAREE,2430,Mid-Coast,Milan Kumal,,https://www.thegrilltaree.com.au/,,,,(02) 6552 6876
Tom Tom Thai,15 TWEED ST ,BRUNSWICK HEADS,2483,Byron,M & K JACKSON PTY LTD,,https://tomtomthai.com.au/,,,,(02) 6685 1674
Spice Affair Indian Cuisine Pty Ltd,171 COMUR ST ,YASS,2582,Yass Valley,SPICE AFFAIR INDIAN CUISINE PTY LTD,66617327867.0,http://www.spiceaffairyass.com.au/,,,,(02) 6226 1546
Baradine Golf Club INC,28 HOTCHKISS RD ,BARADINE,2396,Warrumbungle,Paul Leonard,,,,,,
Fan Inn,1364 PACIFIC HWY ,TURRAMURRA,2074,Ku-ring-gai,Bin Li,,,,,,(02) 9449 3568
Emanuel's,SHOP 1 & 2/23-41 PARK ST ,PORT MACQUARIE,2444,Port Macquarie-Hastings,JTN HOSPITALITY PTY LTD,36672052014.0,https://www.kmart.com.au/store-detail/Kmart+Port+Macquarie?utm_source=google&utm_medium=organic&utm_campaign=googleplaces&utm_content=kmart+port+macquarie,,,,(02) 6586 8300
Mangrove Shack,UNIT 3 2-4 NORTHUMBERLAND RD ,CARINGBAH,2229,Sutherland,Nicole Cicchetti,,,,,,0414 750 569
Ball Boy,UNIT 2 31 DOBROYD RD ,BALGOWLAH HEIGHTS,2093,Northern Beaches,Adam BRIDLE,,https://www.theheightscafe.au/,,,,0493 718 985
Woolgoolga Brewing Co,7 WILLIS RD ,WOOLGOOLGA,2456,Coffs Harbour,Ryan POOLE,,http://www.woopibrewingco.com.au/,,,,(02) 6654 0929
Thai Som Boon Restaurant,SHOP 11 256 ARGYLE ST ,MOSS VALE,2577,Wingecarribee,THAI SOM BOON PTY LTD,67636628941.0,http://thaisomboonmossvale.com/,,,,(02) 4801 2984
El Karim Restaurant,126 PACIFIC HWY ,ROSEVILLE,2069,Ku-ring-gai,Fadi Constantine,,http://www.elkarim.com.au/,,,,(02) 9416 4099
JEZTECH,25 SHOWGROUND RD ,COMBOYNE,2429,Port Macquarie-Hastings,Jeremy Kearns,,,,,,
Guzman Y Gomez Central Belmont,507 PACIFIC HWY ,BELMONT,2280,Lake Macquarie,BELMONT TAQUERIA PTY LTD,73654148820.0,https://www.guzmanygomez.com.au/locations/central-belmont/?y_source=1_MzU0Njk0MzgtNzE1LWxvY2F0aW9uLndlYnNpdGU%3D,,,,(02) 4072 4350
Charlotte Café,22 THE CENTRE ,FORESTVILLE,2087,Northern Beaches,CHARLOTTE FORESTVILLE PTY LTD,90643497018.0,https://www.charlottecafe.com.au/,,,,(02) 8201 3546
Kinship Kitchen,173 BEARDY ST ,ARMIDALE,2350,Armidale Regional,Salam Qaro,,,,,,
The Common South Coast,167 PRINCE EDWARD AV ,CULBURRA BEACH,2540,Shoalhaven,Alexandra Malby,,https://thecommonsouthcoast.au/,,,,0494 115 489
Hometown Cafe,48 MAIN ST ,LITHGOW,2790,Lithgow,HOMETOWN TRADINGS PTY LTD,17638501809.0,http://www.hometowncafe.au/,,,,(02) 6352 5551
THAIANGLE HOUSE,17 BABBAGE RD ,ROSEVILLE CHASE,2069,Ku-ring-gai,Krist Imsamran,,https://thaianglehousecuisine.square.site/,,,,0481 878 744
Amore Bar Co,30 BOORALIE RD ,TERREY HILLS,2084,Northern Beaches,E PLUMBING PTY LTD,32635041977.0,,,,,
Lim’s kitchen Newcastle,UNIT 1 87 KING ST ,WARNERS BAY,2282,Lake Macquarie,LIM'S KITCHEN NEWCASTLE PTY LTD,80661102674.0,http://www.facebook.com/limskitchen,,,,(02) 4948 7593
Montreal Community Theatre Inc.,44 RUSSELL ST ,TUMUT,2720,Snowy Valleys,Anita Killelea,,http://montrealtheatre.com.au/,,,,(02) 6947 4840
Emerald Downs Golf Course,67 EMERALD DR ,PORT MACQUARIE,2444,Port Macquarie-Hastings,Brendon Roods,,http://www.emeralddowns.com.au/,,,,(02) 6582 6120
Naked Alley Cafe,91 MAGNUS ST ,NELSON BAY,2315,Port Stephens,NAKED ALLEY CAFE CO PTY LTD,46677526573.0,http://www.nakedalley.au/,,,,(02) 4984 9400
Mamma Mia Italian Kitchen,634B Electra Street ,EAST ALBURY,2640,Albury,MMIK ALBURY PTY LTD,,http://www.mammamiaitaliankitchen.com.au/,,,,(02) 6064 2585
Cakeboi,48 LINDSAY ST ,HAMILTON,2303,Newcastle,CAKEBOI PTY LTD,75636521161.0,https://cakeboitakeaway.square.site/,,,,
Greater Lithgow Hockey Association,Jim Muir Drive ,LITHGOW,2790,Lithgow,Kylie Holmes,,,,,,
Montrose House,11 ORMOND ST ,SUTTON FOREST,2577,Wingecarribee,Daniela Kurtz,,https://montrosehouse.com.au/,,,,0455 415 226
Griffith Jockey Club,161 REMEMBRANCE DR ,GRIFFITH,2680,Griffith,Rebecca Kroek,,http://www.griffithjockeyclub.com.au/,,,,
Shahi Mahal Indian Restaurant,261 THE ENTRANCE ROAD ,THE ENTRANCE,2261,Central Coast,SANVIR ENTERPRISES PTY LTD,64609674115.0,http://www.shahimahal.net.au/,,,,(02) 4334 5008
Whistle-On-Ocean Pty Ltd,SHOP 32 82 RAJAH RD ,OCEAN SHORES,2483,Byron,WHISTLE-ON-OCEAN PTY LTD,,,,,,
Teta gourmet kitchen,UNIT 2 12-16 KURRAWYBA AV ,TERRIGAL,2260,Central Coast,THE MOTHER OF ALL PTY LIMITED,73680197237.0,,,,,0451 838 303
Sassafras Yamba,16A COLDSTREAM ST ,YAMBA,2464,Clarence Valley,STEVIE BELL,,http://www.sassafrasyamba.com/?utm_source=google&utm_medium=wix_google_business_profile&utm_campaign=13329558939142878247,,,,(02) 6646 1011
Newcastle Community Hunter Rugby League,13 LEISURE WAY ,RAYMOND TERRACE,2324,Port Stephens,Wayne Dawson,,https://www.portstephens.nsw.gov.au/community/community-venues/sports-fields/lakeside-sports-complex,,,,(02) 4980 0255
NEPALI FOOD MANDALA,248 MACQUARIE ST ,DUBBO,2830,Dubbo Regional,NEPALI FOOD MANDALA PTY LTD,17657962966.0,http://www.nepalifoodmandala.com.au/,,,,(02) 5818 5210
The Courtyard Cafe Berrima,Shop 2-4 / Lot 117 Old Hume Highway ,BERRIMA,2577,Wingecarribee,STORYBOOK HOLDINGS PTY LTD,,,,,,(02) 4877 2729
Amber Lane Distillery Pty Limited,43A HAYWARD RD ,WANDANDIAN,2540,Shoalhaven,Rodney Berry,,https://www.amberlanedistillery.com/,,,,0407 543 212
The Broken Hill Gun Club Inc,4 RANGE RD ,BROKEN HILL,2880,Broken Hill,David Lemmich,,,,,,
VIRTUAL GOLF CENTRE BALLINA,LOT 8 ASCOT ROAD ,BALLINA,2478,Ballina,Shane Jacobs,,https://www.virtualgolfcentre.com.au/,,,,0423 259 551
Blueflame modern Indian cuisine,253 PEEL ST ,TAMWORTH,2340,Tamworth Regional,SANI SHAHI,,https://www.orderatdiscount.com/api/fb/_vpxmn,,,,(02) 6766 5543
Sea Change Fish & Meat Grill Cafe,UNIT 3 20 THE STRAND ,DEE WHY,2099,Northern Beaches,Pawel Miszczynski,,https://www.seachangecafe.com.au/,,,,(02) 9971 9692
The Good View Canterbury,Shop6 211 Canterbury Road ,CANTERBURY,2193,Canterbury-Bankstown,U KNOW THAI TABLE PTY LTD,37670499340.0,,,,,(02) 9718 9898
TOC RIVERDECK,21 DENILIQUIN RD ,TOCUMWAL,2714,Berrigan,Adam DRUST,,,,,,0476 526 828
High N Dry Burgers Rosebery,SHOP 1 1-3 DUNNING AV ,ROSEBERY,2018,Sydney,Arnold Iliagouev,,https://www.high-n-dry.com.au/,,,,(02) 9438 5969
Indian @ Hunter,43 ALLANDALE RD ,CESSNOCK,2325,Cessnock,Indian Food Enterprises Pty Ltd,,http://www.indianathunter.com/,,,,(02) 4991 1773
Bostin Brew Co.,89 CITY RD ,MEREWETHER,2291,Newcastle,ADVANCED CATERING SYSTEMS HOLDINGS PTY LIMITED,32602704709.0,https://bostinbrewco.com.au/,,,,(02) 4963 6303
King's Cup,15 DELVYN DR ,INVERELL,2360,Inverell,Sigourney Keyte,,,,,,
Warialda Jockey club,128 RACECOURSE RD ,WARIALDA,2402,Gwydir,Brian Davis,,,,,,
Coast Palm Beach,1031 BARRENJOEY RD ,PALM BEACH,2108,Northern Beaches,Shanil Singh,,https://sites.google.com/coastpalmbeach.com.au/licensedcafe?usp=sharing,,,,(02) 8919 0660
HANOK KOREAN BBQ,"SHOP E6, 50 Wyong Road ",TUGGERAH,2259,Central Coast,HANOK PTY LTD,,https://hanokbbq.com.au/,,,,0422 787 490
Burgerfiend,"Shops 4-6, 2 North Avenue ",CESSNOCK,2325,Cessnock,Shanae Freeman,,http://www.burgerfiend.com.au/,,,,(02) 4024 1135
Meantime,"Shop 1 & 2, 89-95 The Entrance Road ",THE ENTRANCE,2261,Central Coast,MEANTIME PTY LTD,36654270532.0,https://meantime.com.au/,,,,(02) 5661 6423
Morning Market Coffee Pty Ltd,Suite 1-2/470 The Esplanade ,WARNERS BAY,2282,Lake Macquarie,Thomas Carias-Cox,,https://www.meandu.app/morningmarket-warnersbay,,,,(02) 4072 0016
Zeus Street Greek Hamilton,"SHOP 2, 79-81 BEAUMONT ST ",HAMILTON,2303,Newcastle,ZSG HAMILTON PTY LTD,71653874296.0,https://zeusstreetgreek.com.au/?utm_content=Zeus%20Street%20Greek%20Hamilton%20-%20Hamilton&utm_campaign=Google%20My%20Business&utm_medium=organic&utm_source=google&utm_term=plcid_3759600582528162187,,,,(02) 4072 3420
Twenty46 Coffeehouse,394 HARBOUR DR ,COFFS HARBOUR,2450,Coffs Harbour,Melissa Jupp,,http://www.twenty46.com/,,,,(02) 6652 5665
Kiss My Axe,40 WINBOURNE RD ,BROOKVALE,2100,Northern Beaches,Ian Williams,,https://www.kissmyaxe.com.au/,,,,1300 692 937
LARDER AND HOME,4602 MITCHELL HWY ,LUCKNOW,2800,Orange,MICE GROUP HOLDINGS PTY LTD,66641341862.0,http://larderhome.au/,,,,(02) 6365 5258
KG CAFE,42 TERRALONG ST ,KIAMA,2533,Kiama,SUZANNAH HOLDINGS PTY LTD,92629252740.0,https://kgcafekiama.whoods.com.au/,,,,(02) 4233 2211
Cumnock Show Society,21 MCLAUGHLAN ST ,CUMNOCK,2867,Cabonne,Sally Morse,,,,,,
Izakaya Potts,SHOP 5 18 PHILIP ST ,POTTSVILLE,2489,Tweed,NIJIYA PTY LTD,,https://www.facebook.com/izakayapotts,,,,(02) 6676 2554
Guzman Y Gomez Port Macquarie,1067 OXLEY HWY ,THRUMSTER,2444,Port Macquarie-Hastings,Andomada Pty Ltd,,https://www.guzmanygomez.com.au/locations/port-macquarie/?y_source=1_NTE2NTg3MDItNzE1LWxvY2F0aW9uLndlYnNpdGU%3D,,,,(02) 5513 6060
AL CHIOSCO,UNIT 7 38 OCEAN AV ,KINGSCLIFF,2487,Tweed,Mauro De Riso,,https://alchiosco.com.au/,,,,(02) 6674 2450
NRMA Darlington Beach Resort,2564 SOLITARY ISLANDS WAY ,ARRAWARRA,2456,Coffs Harbour,AUSTRALIAN TOURIST PARK MANAGEMENT PTY LIMITED,85061270513.0,https://www.nrmaparksandresorts.com.au/darlington-beach/?utm_medium=organic&utm_source=googlebusiness&utm_campaign=nrma-googlebusiness&utm_content=darlington&utm_term=2211-nrma-googlebusiness,,,,1800 888 999
Kinfolk and Co. Coffee,167 LACHLAN ST ,HAY,2711,Hay,Lena Gash,,https://www.facebook.com/kinfolkandcohay,,,,(02) 6993 3456
Gia cafe & bistro,SHOP 4 201 LEURA MALL ,LEURA,2780,Blue Mountains,Shashika Deeyagahage,,https://www.giacafebistro.com.au/,,,,0409 603 874
Durbar Restaurant and Events,165 PACIFIC HWY ,CHARLESTOWN,2290,Lake Macquarie,RG & RR PTY LTD,89649866071.0,http://www.durbarevents.com.au/,,,,(02) 4943 0663
Tandoori Chops Indian Grill,11 LUKIS AV ,RICHMOND,2753,Hawkesbury,MGH ASSOCIATES PTY LTD,49645088937.0,http://www.tandoorichops.com.au/,,,,0497 116 499
Okami Albury,639B DEAN ST ,ALBURY,2640,Albury,PUSTON PTY LTD,64650055897.0,http://okamirestaurant.com.au/,,,,(02) 9363 3888
Vacy General Store & Cafe,803 GRESFORD RD ,VACY,2421,Dungog,USFOR PTY LIMITED,32158230105.0,,,,,(02) 4938 8425
MUSE YAMBA,Shop 4 / 15 Clarence street ,YAMBA,2464,Clarence Valley,Lachlan Mulligan,,,,,,0407 451 446
The Jackson Ranch,101 WILLINGA RD ,BAWLEY POINT,2539,Shoalhaven,MEDIA GENERAL HOLDINGS PTY LTD,75619128031.0,https://thejacksonranch.com.au/,,,,0473 928 166
IL TRULLO PTY LTD,SHOP 4 86-88 MAIN ST ,MITTAGONG,2575,Wingecarribee,IL TRULLO PTY LTD,20654004332.0,http://www.iltrullo.com.au/,,,,(02) 4855 2939
Base Camp Cafe,1 MOUNT TATE RD ,GUTHEGA,2624,Snowy Monaro Regional,Nicole Chatten,,http://basecampguthega.com.au/,,,,0458 931 521
Legacy of India Merimbula,UNIT 5 17 MERIMBULA DR ,MERIMBULA,2548,Bega Valley,Ramesh Adhikari,,https://legacyofmerimbula.com.au/,,,,(02) 6427 0050
Yaman Mullumbimby,62 STUART ST ,MULLUMBIMBY,2482,Byron,MAMA EARTH & CO PTY LTD,36626519122.0,https://www.yamanmullumbimby.com.au/,,,,(02) 6684 3778
Light Years Byron Bay,"G 7 & G 8, 139 Jonson Street ",BYRON BAY,2481,Byron,LIGHT YEARS BYRON PTY LTD,15620348058.0,http://www.lightyearsasiandiner.com.au/,,,,0423 138 538
Niagara Cafe Gundagai,142 SHERIDAN ST ,GUNDAGAI,2722,Cootamundra-Gundagai Regional,MOONLITE PROJECTS PTY LTD,,https://www.facebook.com/NiagaraCafeGundagai/,,,,(02) 9069 5733
glen innes jockey club,LOT 2 DUMARESQ ST ,GLEN INNES,2370,Glen Innes Severn,Brian Fordham,,https://www.facebook.com/gleninnes.ponyclub/,,,,0429 174 339
Thornton Redbacks Football Club,Taylor Avenue ,THORNTON,2322,Maitland,Mark Whitchurch,,,,,,
nambucca heads rugby league football club,lot 4 short street ,NAMBUCCA HEADS,2448,Nambucca Valley,Peter Bellden,,https://www.facebook.com/groups/47839182697/posts/10160640595147698/?notif_id=1674095291486545&notif_t=group_post_approved&ref=notif,,,,
Sawtell Toormina Australian Rules Football Club Inc,Hulberts Road ,TOORMINA,2452,Coffs Harbour,Shirley Linnett,,https://www.facebook.com/sawtelltoorminasaints,,,,0400 468 808
BB Terrigal,88 TERRIGAL ESP ,TERRIGAL,2260,Central Coast,Nicole Gunasinghe,,https://cocoterrigal.com.au/,,,,0459 840 904
ELMAS,54 CLYDE ST ,HAMILTON NORTH,2292,Newcastle,Goldie Nguyen,,,,,,(02) 4961 1520
Narrandera Bowling & Recreation Club Pop-up,2 VICTORIA AV ,NARRANDERA,2700,Narrandera,Cameron Lander,,http://narranderabowls.com.au/,,,,(02) 6959 2127
Killara Charity Campdraft,93 JOHNS LANE ,QUIPOLLY,2343,Liverpool Plains,Kevin Galbraith,,,,,,
NELSON BAY FOOTBALL CLUB INCORPORATED,20 AQUATIC CL ,NELSON BAY,2315,Port Stephens,Todd Giles,,http://www.nelsonbayfootball.com.au/,,,,
Macleay Valley Mustangs RLFC,1 VERGE ST ,KEMPSEY,2440,Kempsey,Dominique LOCKWOOD,,,,,,
St Kilda Hotel,131 HANDEL ST ,ARMIDALE,2350,Armidale Regional,David Barraclough,,http://stkildahotel.com.au/,,,,(02) 6772 4459
Alter Ego Club,UNIT 3 24 WOODS PDE ,FAIRLIGHT,2094,Northern Beaches,Louise Edney,,,,,,
Newcastle Uni Mens FC,Wirra Crescent ,CALLAGHAN,2308,Newcastle,Oscar Brotherston,,,,,,0413 609 233
Attitude Burgers,"Ground Floor, 55-67 Marina Drive ",COFFS HARBOUR,2450,Coffs Harbour,W M B PACIFIC PTY LIMITED,92149916674.0,http://attitudeburgers.com.au/,,,,(02) 6651 5505
marlins rugby union club coffs harbour incorporated,LOT 201 STADIUM DR ,COFFS HARBOUR,2450,Coffs Harbour,Ben Van Der Linden,,,,,,
Cootamundra Blues Football Club,Wallendoon Street ,COOTAMUNDRA,2590,Cootamundra-Gundagai Regional,Leanne Clee,,,,,,(02) 6940 2100
Sunrise Kiosk,73 NARRABEEN PARK PDE ,WARRIEWOOD,2102,Northern Beaches,SUNRISE KIOSK PTY LTD,87636604272.0,https://www.instagram.com/sunrisecafeau/,,,,0413 275 598
Pixie Food & Wine,139 JONSON ST ,BYRON BAY,2481,Byron,PIXIE RESTAURANT PTY LTD,13650146713.0,http://www.pixiebyronbay.com.au/,,,,0447 096 059
ALL PURPOSE BAKERY,"Level 2, 80 Commonwealth Street ",SURRY HILLS,2010,Sydney,Fully Baked Pty Ltd,,http://www.apbakery.com.au/,,,,
Florabel Pty Ltd,195 IMLAY ST ,EDEN,2551,Bega Valley,Sheri McEvoy,,http://www.florabel.com.au/,,,,0439 511 544
Rustico Pizza e Bar,4 KATOOMBA ST ,KATOOMBA,2780,Blue Mountains,HEART AND PIZZA PTY LTD,30630991990.0,,,,,0439 633 446
Uncle Franks Cafe,316 SOLDIERS POINT RD ,SALAMANDER BAY,2317,Port Stephens,Dominique Stanton,,http://unclefrankscafe.com.au/,,,,
Wings and Tins Newcastle,88 DARBY ST ,COOKS HILL,2300,Newcastle,Kevin MacFarlane,,http://www.wingsandtins.com/,,,,
Opal Street Cafe,12 OPAL ST ,LIGHTNING RIDGE,2834,Walgett,Natasha Turnbull,,https://www.facebook.com/opalstreetcafe/,,,,0467 257 826
The Homestead Berry,8 HOMESTEAD LANE ,BERRY,2535,Shoalhaven,SUPER QUINN PTY LTD,,https://thehomesteadberry.com/,,,,
Latin House Sushi,SHOP 10G 5 MOORAMBA RD ,DEE WHY,2099,Northern Beaches,LATIN HOUSE CAFE PTY LTD,33646503871.0,http://www.munchiessushi.com.au/,,,,0420 468 600
Em's Thai Kitchen,137 BEACH ST ,HARRINGTON,2427,Mid-Coast,Charles Camp,,https://www.localsearch.com.au/profile/ems-thai-kitchen/harrington-nsw/TK5f?utm_source=google&utm_medium=organic&utm_campaign=gmb-website-button,,,,(02) 6556 0060
Cranzgots Pizza Cafe,UNIT 1 1 CAREEL HEAD RD ,AVALON BEACH,2107,Northern Beaches,Romi Modi,,http://www.cranzgots.com.au/,,,,(02) 9918 5550
Goulburn Performing Arts Centre,163 AUBURN ST ,GOULBURN,2580,Goulburn Mulwaree,GOULBURN MULWAREE COUNCIL,,https://www.goulburnpac.com.au/Home,,,,(02) 4823 4999
Spice it Up Thai Restaurant,103 STUART ST ,MULLUMBIMBY,2482,Byron,M & K JACKSON PTY LTD,,https://spiceitupthai.com/?utm_source=google&utm_medium=organic&utm_campaign=gmb,,,,(02) 6684 1383
Bonython Café Paddington,52 VICTORIA ST ,PADDINGTON,2021,Woollahra,CBC CO PTY LIMITED,,https://m.facebook.com/pages/The-Bonython-Cafe/349294018928718,,,,(02) 9397 1472
The Wharf Local,Lower Level Cargo Shed Wharf Rd Tathra Wharf Wharf Rd,TATHRA,2550,Bega Valley,Emma Benton,,http://thewharflocal.com.au/,,,,0438 762 175
hey Lady diner,105 RIVER ST ,BALLINA,2478,Ballina,Jacqueline Mccoach,,http://www.heyladydiner.com.au/,,,,0458 330 484
The Shed Cafe & Bar,753 GROSE VALE RD ,GROSE VALE,2753,Hawkesbury,Angela Maguire,,,,,,
The Press Book and Coffee House,462 HUNTER ST ,NEWCASTLE,2300,Newcastle,Katie Bleus,,http://www.thepressbookhouse.com.au/,,,,0404 497 373
TWO HUNGRY BEARS,1303 PITTWATER RD ,NARRABEEN,2101,Northern Beaches,Narsinhbhai Patel,,http://www.twohungrybearsnarrabeen.com.au/,,,,(02) 9913 9736
Pizza at Yours,"SHOP 1, 140 SYDNEY ROAD ",FAIRLIGHT,2094,Northern Beaches,Emiliano Maturo,,http://www.pizzaatyours.com.au/,,,,(02) 8021 1654
Frankie Mae’s,SHOP 9/24-28 SCENIC DR ,TWEED HEADS WEST,2485,Tweed,Megan Talbot,,http://www.frankiemaes.com.au/,,,,0447 663 215
Dumpling Bar,SHOP 1035 LEVEL 1 30 PEARSON ST ,CHARLESTOWN,2290,Lake Macquarie,NCDB GROUP PTY LTD,34654016172.0,https://dumplingbarcharlestown.com.au/,,,,(02) 4041 0777
Glasshouse Thai,37 CLARENCE ST ,PORT MACQUARIE,2444,Port Macquarie-Hastings,Phillip WADDINGTON,,http://www.glasshousethai.com.au/,,,,(02) 6583 9043
Smokin Hot 'n Saucy Barbecue,116 MAITLAND RD ,ISLINGTON,2296,Newcastle,Randi Johnson Thraves,,https://the-lot-smokehouse-beergarden-bbq.square.site/,,,,0432 982 695
Lake Macquarie City Council Events - Speers Point Park,15 PARK RD ,SPEERS POINT,2284,Lake Macquarie,Jacqueline Hemsley,,http://www.lakemac.com.au/,,,,(02) 4921 0333
Hanmaru,69A BOLD ST ,LAURIETON,2443,Port Macquarie-Hastings,SEOUL ST. PTY LTD,14651047880.0,https://www.facebook.com/share/18s6rxKHsh/?mibextid=wwXIfr,,,,(02) 6559 5881
Alma Freshwater,20 ALBERT ST ,FRESHWATER,2096,Northern Beaches,Dirk Wright,,https://www.st-alma.com.au/,,,,0405 901 794
Hello Lucy Lou,563 FREEMANS REACH RD ,FREEMANS REACH,2756,Hawkesbury,LOUISE DEWAR,,http://www.freemansreachcafe.com.au/,,,,(02) 4508 4114
FED Blue Mountains,6 STATION ST ,WENTWORTH FALLS,2782,Blue Mountains,Craig Haines,,http://www.fedbluemountains.com.au/,,,,(02) 4757 1429
Bites & Brew,SHOP 28 1 GOWRIE ST ,SINGLETON,2330,Singleton,Sildam Investments Pty Ltd,,http://bitesandbrew.com.au/,,,,(02) 5591 5006
Miller Park Sport & Recreation Hotel,6 MAITLAND ST ,EAST BRANXTON,2335,Cessnock,Carly Brown,,,,,,(02) 4938 1226
Eqwine,474 CANOBOLAS RD ,CANOBOLAS,2800,Cabonne,Fiona Hall,,https://www.facebook.com/windfallequine/,,,,0417 537 017
Cessnock Tennis Club Inc,49A ABERDARE RD ,ABERDARE,2325,Cessnock,Sonia CLOSE,,http://play.tennis.com.au/cessnocktennisclub,,,,(02) 4990 1597
Wine Fairy Events,13 BEACH RD ,WANGI WANGI,2267,Lake Macquarie,Katharina Clark,,,,,,
The Roses Cafe,59 VERNER ST ,GOULBURN,2580,Goulburn Mulwaree,MIKAELA ROSE,,http://www.therosescafe.com.au/,,,,(02) 4822 2248
Federal Doma Cafe,3-6 Albert st ,FEDERAL,2480,Byron,Takayuki Kuramoto,,https://www.domacafe.com.au/,,,,(02) 6688 4711
AT THAI LINDFIELD,308 PACIFIC HWY ,LINDFIELD,2070,Ku-ring-gai,Jaraslak JUKWANNA,,https://www.atthailindfield.com/,,,,0452 598 295
Cafe Vivaldi,390 PEEL ST ,TAMWORTH,2340,Tamworth Regional,Dinesh GOYAL,,https://cafevivaldicoffee.com.au/,,,,(02) 6766 3993
Bangkok on Darby,1 9 DARBY ST ,NEWCASTLE,2300,Newcastle,BANGKOK ON DARBY PTY LTD,34651548113.0,http://www.bangkokondarby.com.au/,,,,(02) 4017 2564
 Swish Café,147 RIVER ST ,BALLINA,2478,Ballina,SWISH TRADING PTY LTD,,https://www.swishcafe.com.au/,,,,(02) 6681 4033
Dancing Goat Mudgee,104 Church Street ,MUDGEE,2850,Mid-Western Regional,THE GOAT MUDGEE PTY LIMITED,20649665707.0,https://dancinggoatmudgee.bitebusiness.com/,,,,(02) 6372 2010
Blow Horn Restaurant,UNIT 2 453 DEAN ST ,ALBURY,2640,Albury,Gurvinder Singh,,https://blowhorn.com.au/,,,,0481 341 355
Fedele's East Gosford,"Shop 3, 36-40 Victoria Street ",EAST GOSFORD,2250,Central Coast,FEDELE'S AT DURAL PTY LTD,68622489196.0,https://www.fedeleseastgosford.com.au/?utm_source=google&utm_medium=organic&utm_campaign=gmb,,,,(02) 4339 2522
Benjamas Thai by Chin,100 DARBY ST ,COOKS HILL,2300,Newcastle,Ratcharin Sopharak,,https://benjamasthai.com/,,,,(02) 4926 1229
Betty's Burgers & Concrete Co. Newcastle,Shop R20 / 5 Perkins Street ,NEWCASTLE,2300,Newcastle,BETTY'S BURGERS AUSTRALIA PTY LTD,35132912817.0,https://www.bettysburgers.com.au/,,,,(02) 4927 8048
PEIJIE HOT POT,Shop Q42-Q43A 57-59 Queen St ,AUBURN,2144,Cumberland,HUANG ENTERPRISES PTY LTD,72642821770.0,,,,,(02) 9643 0209
Tony G's Bistro,67 ADELAIDE ST ,BLAYNEY,2799,Blayney,Tony Gittany,,https://tonygsbistro.com.au/,,,,(02) 6368 3792
Mad Mex - Bateau Bay,"Shop 17-19, 12 Bay Village Road ",BATEAU BAY,2261,Central Coast,Andrew Burge,,https://www.madmex.com.au/,,,,(02) 4915 5390
CLUNES CAFE,33 MAIN ST ,CLUNES,2480,Lismore,Andres Latorre Canon,,,,,,
AUTHENTIC TASTE OF INDIA,6 452 DEAN ST ,ALBURY,2640,Albury,BROTHER TRADING PTY LTD,45632856672.0,https://authentictasteofindia.com.au/,,,,(02) 6090 3277
The Jewel of Bathurst,UNIT 1 108 WILLIAM ST ,BATHURST,2795,Bathurst Regional,CHEEMA INVESTMENT GROUP PTY LTD,52647581262.0,,,,,(02) 6332 5012
Jabba's Palace,135 HUME ST ,GOULBURN,2580,Goulburn Mulwaree,Gregory Appleton,,,,,,
BURRITO BAR LISMORE,44 CARRINGTON ST ,LISMORE,2480,Lismore,PROFITABLE L & D PTY LTD,,http://www.burritobar.com.au/,,,,(02) 6616 1483
My Wine Affair,UNIT 2 271 O'SULLIVAN RD ,BELLEVUE HILL,2023,Woollahra,Meiron Lees,,,,,,
Flame trees cafe & Cakery,77 PRINCE ST ,GRAFTON,2460,Clarence Valley,Amy Hall,,http://www.flametreescafe.com.au/,,,,0424 226 918
black Drop,SHOP 4 18 PHILIP ST ,POTTSVILLE,2489,Tweed,James Attard,,http://blackdropcafe.com.au/,,,,
Stir Espresso Leeton,121 PINE AV ,LEETON,2705,Leeton,Michele Nardi,,http://facebook.com/stirespressoleeton,,,,(02) 6953 4528
19 The Boulevarde,19 THE BOULEVARDE ,WOY WOY,2256,Central Coast,Jeoungsun Cho,,,,,,0401 447 883
Tenka Sushi Japanese Restaurant,5 DURHAM AV ,ST IVES,2075,Ku-ring-gai,Daniel Kwon,,http://www.tenkasushistives.com.au/,,,,0484 863 374
SUSHI HOUSE MONA VALE,"Shops 6 & 7, 9 Bungan Street ",MONA VALE,2103,Northern Beaches,PHILIP KIM PTY LTD,,,,,,0424 814 035
Pambula Fishing Club,Landing Road ,SOUTH PAMBULA,2549,Bega Valley,Julie Tye,,,,,,
Bangkok Sidewalk Bellevue Hill,UNIT 1 27 BELLEVUE RD ,BELLEVUE HILL,2023,Woollahra,M & P CORPORATION PTY LTD,30670969114.0,http://www.bangkoksidewalk.com.au/,,,,(02) 9389 2121
Niche Wine Services,21 CHARLES ST ,EDGEWORTH,2285,Lake Macquarie,Matthew Lawlor,,,,,,
Blacksmith Albury,614 YOUNG ST ,ALBURY,2640,Albury,Elizabeth Mcnaught,,https://www.blacksmith.pizza/,,,,0477 800 588
Windmill Tavern,"Managers Residence, Greg Norman Drive ",TAMWORTH,2340,Tamworth Regional,DROMAHAIR PTY LTD,55003052864.0,http://www.windmillpractice.com.au/,,,,(02) 6761 8300
Windsor Thai Restaurant,82 GEORGE ST ,WINDSOR,2756,Hawkesbury,AKW & CO PTY LTD,11645432579.0,https://facebook.com/WindsorThai/,,,,(02) 4577 8000
Equium Social,1-5 MAITLAND RD ,MAYFIELD EAST,2304,Newcastle,Jacques Deloraine,,https://www.equiumsocial.com.au/,,,,(02) 4089 5732
Saffron India Restaurant,UNIT 5 23 WYONG RD ,TUMBI UMBI,2261,Central Coast,YUVRAJ HOLDING PTY LTD,,https://www.tandooridhaba-tumbiumbi.com.au/,,,,(02) 4388 3343
Pettigrew Family Funerals,7 MURRAY DWYER CCT ,MAYFIELD WEST,2304,Newcastle,Amy Pettigrew,,http://www.pettigrew.com.au/,,,,(02) 4951 1166
Grill'd West Gosford,"Shop 29-31, 269-299 Brisbane Water Drive ",WEST GOSFORD,2250,Central Coast,GRILL'D PTY LTD,17106297394.0,https://grilld.com.au/restaurants/new-south-wales/west-gosford?utm_source=google&utm_medium=local&utm_campaign=gmb,,,,(02) 4325 5927
CRICCA,UNIT 1 135 GEORGE ST ,WINDSOR,2756,Hawkesbury,Maria Nogarotto,,http://restaurantcricca.com/,,,,(02) 4545 1231
The Vicarage Cafe,9/11 Edward Street ,NORTH STAR,2408,Gwydir,HARDOOL PTY LTD,80643998449.0,,,,,0459 338 810
Mr Collins of Leura,128 LEURA MALL ,LEURA,2780,Blue Mountains,Joshua Watts,,http://mrcollinsofleura.com.au/,,,,0421 843 933
High Street Social Bowral Pty Ltd,310-318 BONG BONG ST ,BOWRAL,2576,Wingecarribee,Taylor Hudson,,https://www.highstreetsocial.net/,,,,0479 192 474
Modus Operandi Brewing Co,16 MEREWETHER ST ,MEREWETHER,2291,Newcastle,Maisie STONE,,https://www.mobrewing.com.au/,,,,(02) 4011 5850
888 CHICKEN,SHOP 1 886A PACIFIC HWY ,GORDON,2072,Ku-ring-gai,K FOOD GLOBAL PTY LTD,71631598475.0,https://qrcode.qonus.com.au/888chicken/takeaway,,,,(02) 8593 1966
Burger Urge forster,149 3-17 Breese ,Forster,2428,Mid-Coast,MATA HASI DEVI PTY LTD,80677218030.0,http://www.burgerurge.com.au/,,,,(02) 5509 9891
Ikura Japan,"Shops S16,S17 & S18, 10 Park Street ",MONA VALE,2103,Northern Beaches,Dong Ho Chang,,https://qrcode.qonus.com.au/ikurasushi/takeaway,,,,0452 256 654
Bruno's Mediterranean Kitchen,2 OAK ST ,BELLINGEN,2454,Bellingen,Genaro BENMAYOR,,http://www.brunosbellingen.com.au/,,,,(02) 6600 8614
Queanbeyan Roos Senior Football Teams,1 RICHARD AV ,CRESTWOOD,2620,Queanbeyan-Palerang Regional,Anthony Wood,,http://www.roosclub.com.au/,,,,(02) 6297 6222
First Drop Cafe,69 BAPTIST ST ,REDFERN,2016,Sydney,MSCH PTY LIMITED,33610716802.0,,,,,
Tamworth Tenpins & More,LEVEL 1 374-388 PEEL ST ,TAMWORTH,2340,Tamworth Regional,Joanne Robinson,,http://www.tamworthtenpinsandmore.com.au/,,,,(02) 6798 9995
Oh My Papa,Shop R14/185 Hunter Street ,NEWCASTLE,2300,Newcastle,Apinya Lertaromrat,,http://www.ohmypapa.com.au/,,,,(02) 4032 5683
Sapori at Tailors,10 BEAUMONT ST ,ISLINGTON,2296,Newcastle,Robert Naumov,,https://sapori-at-tailors.square.site/,,,,(02) 4962 3110
K and G'z Goulburn,9 FRANKLIN ST ,GOULBURN,2580,Goulburn Mulwaree,K AND G'Z PTY LTD,86631300797.0,,,,,(02) 4822 2427
Tiona Weddings & Events,4451 The Lakes Way ,TIONA,2428,Mid-Coast,TIONA INVESTMENTS PTY LTD,,,,,,(02) 6554 0291
Harrigan's,315 GEORGE BOOTH DR ,CAMERON PARK,2285,Lake Macquarie,Mathew Sargent,,https://www.harriganscameronpark.com.au/,,,,(02) 4905 0699
Wyong Lakes Magpies,1W WOLSELEY AV ,TACOMA,2259,Central Coast,Simon WOOD,,,,,,0437 956 986
Paolo's Cafe,59 BIRKLEY RD ,MANLY,2095,Northern Beaches,Jaimie-Lee Patterson,,,,,,
SANDBAR YAMBA,30A CLARENCE ST ,YAMBA,2464,Clarence Valley,Amanda Sobczyk,,http://www.sandbaryamba.com.au/,,,,(02) 6646 1425
Sushi Train Rosebay,801 NEW SOUTH HEAD RD ,ROSE BAY,2029,Woollahra,MR TRAIN PTY LTD,75646050875.0,http://www.sushitrain.com.au/,,,,0458 058 850
A Little Jacks Style Thai,11 Church St ,BUNDANOON,2578,Wingecarribee,Enkhtsatsar Tugs-Aldar,,http://www.axethai.com/,,,,(02) 4883 4576
Beyond Events Pty Ltd,19 TOURMALINE ST ,NARRABEEN,2101,Northern Beaches,Kim King,,http://www.eventsbeyond.com.au/,,,,1300 198 372
Grill'd Balgowlah,SHOP 66 197-215 CONDAMINE ST ,BALGOWLAH,2093,Northern Beaches,GRILL'D PTY LTD,17106297394.0,https://grilld.com.au/restaurants/new-south-wales/balgowlah?utm_source=google&utm_medium=local&utm_campaign=gmb,,,,(02) 9907 7478
Washoku Rose Bay,24 PLUMER RD ,ROSE BAY,2029,Woollahra,Heeyoung Seo,,http://www.washoku.com.au/,,,,0452 461 640
Meantime,104 BEAUMONT ST ,HAMILTON,2303,Newcastle,MEANTIME PTY LTD,36654270532.0,https://meantime.com.au/,,,,(02) 3820 9214
The Wyatt Gordon,77 WERONA AV ,GORDON,2072,Ku-ring-gai,JIAMING INVESTMENT PTY LTD,70665026291.0,https://www.thewyatt.com.au/,,,,
Harden Picnic Club,4559 BURLEY GRIFFIN WAY ,CUNNINGAR,2587,Hilltops,Nathan Schofield,,,,,,
Soiree @The Loftus,6 HUMPHRYS ST ,JUNEE,2663,Junee,Annette POLLARD,,https://www.theloftusjunee.com/,,,,
ChaRice Noodlebar,"Units 2 & 4, 331-335 Barrenjoey Road ",NEWPORT,2106,Northern Beaches,SHINERISE6395 PTY LTD,17660066428.0,https://www.charicenoodlebar.com.au/,,,,(02) 9999 2864
Kingsley,282 King Street ,NEWCASTLE,2300,Newcastle,GAG KINGSLEY BUSINESS COMPANY PTY LTD,57630141061.0,https://www.crystalbrookcollection.com/kingsley,,,,(02) 4928 8600
Tathra Beach Country Club Tathra Sea Eagles Football,1 ANDY POOLE DR ,TATHRA,2550,Bega Valley,Benjamin Potter,,http://www.tathrabeachcountryclub.com/,,,,(02) 6494 1220
North United wolves football club,1 NILLO ST ,LORN,2320,Maitland,Ned Connelly,,http://bolwarralornjsc.com.au/,,,,0448 218 819
KKGL,25 PRINCES AV ,CHARLESTOWN,2290,Lake Macquarie,Blaise WALTERS,,http://www.charlestownsquare.com.au/?utm_source=localmaps&utm_medium=organic&utm_campaign=google-maps,,,,(02) 4944 4333
Monkey King Richmond,SHOP 3 16 EAST MARKET ST ,RICHMOND,2753,Hawkesbury,MONKEY KING TRADING PTY LTD,91631210467.0,https://www.monkeykingthai.com.au/,,,,(02) 4505 1412
SAZA JAPANESE IZAKAYA,996B PITTWATER RD ,COLLAROY,2097,Northern Beaches,SAZA JAPANESE IZAKAYA PTY LTD,93662001827.0,http://sazajapanese.com/,,,,(02) 7240 1887
Wallsend Football Club (Northern League One),104 SANDGATE RD ,WALLSEND,2287,Newcastle,Amanda Smith,,,,,,
Que Sera,61 FIRST AVE ,SAWTELL,2452,Coffs Harbour,Bianca Wendt,,http://www.bar-que-sera.com/,,,,
Okami Japanese Restaurant - Wagga Wagga,174 FITZMAURICE ST ,WAGGA WAGGA,2650,Wagga Wagga,OKAMI WAGGA WAGGA PTY LTD,33642303562.0,http://okamirestaurant.com.au/,,,,(02) 6921 8558
LG-Solutions Catering,28 LUCILLA RDGE ,MACQUARIE HILLS,2285,Lake Macquarie,LIQUOR AND GAMING SOLUTIONS PTY LTD,49612629348.0,,,,,
The CrnR Espresso,503 PORT HACKING RD ,CARINGBAH SOUTH,2229,Sutherland,KRISTY DEANE,,https://thecrnrmexican.wixsite.com/thecrnrmexican,,,,0419 461 366
Gosford & District Tennis Centre,13 RACECOURSE RD ,GOSFORD,2250,Central Coast,Christopher Lees,,http://www.gosfordtennisclub.com.au/,,,,(02) 4325 2921
Topar sporting complex,Little Topar Barrier Highway Via ,BROKEN HILL,2880,Unincorporated - Far West Area,Sara Edwards,,http://www.gdaypubs.com.au/NSW/little+topar.html,,,,(08) 8091 9428
A Little Somethin' Co.,UNIT 6 220 GEORGE ST ,LIVERPOOL,2170,Liverpool,KUMAR'S COMPANIES GROUP PTY LTD,,,,,,0466 450 671
TGI Fridays Tuggerah,"Shop 1038, Level 1, Westfield Tuggerah 50 Wyong Rd ",TUGGERAH,2259,Central Coast,Ignatius Mendonca,,https://www.tgifridays.com.au/,,,,(02) 4006 3289
Harbord Harlequins Rugby Club,232 Abbott Road ,NORTH CURL CURL,2099,Northern Beaches,Aaron BROUGHTON-ROUSE,,http://harbordunitedjrlfc.com/,,,,0422 011 736
Legacy of India Moruya,40 VULCAN ST ,MORUYA,2537,Eurobodalla,Sanjiv SAKHUJA,,https://legacyofindiamoruya.com.au/,,,,(02) 4474 2909
POKETTO,"1 Dangar Street, retail cafe, ground floor ",CHIPPENDALE,2008,Sydney,I Prianata,,https://www.instagram.com/pokettocafe/,,,,
Burger Urge Tamworth,SHOP 5 LEVEL 1 395-401 PEEL ST ,TAMWORTH,2340,Tamworth Regional,BU LICENCE NO. 12 PTY LTD,,https://burgerurge.com.au/,,,,(02) 5733 4574
Rankins Springs Dragons Football Club,1 DOWLING ST ,RANKINS SPRINGS,2669,Carrathool,Jonathan Streat,,,,,,
GARDEN SUBURB JUNIOR SOCCER CLUB INC,31 Myall Road ,GARDEN SUBURB,2289,Lake Macquarie,Lauren Priestley,,http://www.gardensuburbfc.com/,,,,0421 278 619
TERRIGAL UNITED FOOTBALL CLUB,Terrigal Drive ,TERRIGAL,2066,Central Coast,Jodie Lee,,http://www.terrigalfootball.com,,,,
Miss Arda,62 TERRALONG ST ,KIAMA,2533,Kiama,Emily Herbert,,http://missarda.com/,,,,(02) 4202 3120
French Fryz Narooma,44A PRINCES HWY ,NAROOMA,2546,Eurobodalla,FRENCH FRIES NAROOMA PTY LTD,51685108552.0,,,,,(02) 4474 3830
Marinda Nursery & Café,9 ALBION ST ,WEE WAA,2388,Narrabri,Linda KIEM,,,,,,0409 299 304
TEMPURA KUON,"Shop SE04, 2 Little Hay Street Hay ",HAYMARKET,2000,Sydney,TEMPURA KUON PTY LTD,65644375324.0,http://kuon.com.au/,,,,0409 772 842
Wrap 'N' Roll Cafe & Takeaway,51 PEEL ST ,NORTH TAMWORTH,2340,Tamworth Regional,Anthony Summers,,https://www.facebook.com/Wrap-N-Roll-Cafe-Takeaway-353063458504085/,,,,(02) 5743 2986
The Sherwood Hotel,75 MOLESWORTH ST ,LISMORE,2480,Lismore,THE SHERWOOD HOTEL PTY LTD,45643698597.0,http://www.thesherwoodhotel.com.au/,,,,(02) 5632 5982
Izakaya Kintaro,Shop 2 1085 Pittwater Road ,COLLAROY,2097,Northern Beaches,KINTARO PTY LTD,33095584428.0,http://kintaro.com.au/,,,,0433 960 650
GYG Kotara,"Tenancy B002A, 30 Northcott Drive ",KOTARA,2289,Newcastle,BYRONBAYTAQUERIA PTY LTD,,https://www.guzmanygomez.com.au/locations/kotara/,,,,(02) 4001 0106
Tottenham Picnic Race Club Inc ABN 72951819701,Racecourse Road ,TOTTENHAM,2873,Lachlan,JOSEPH HOLMES,,,,,,
Phulkari Indian Cuisine,UNIT 4 63-69 SORLIE RD ,FRENCHS FOREST,2086,Northern Beaches,Guneet Sidhu,,http://www.phulkari.com.au/,,,,(02) 9975 7713
"The Singing Chef Italian Restaurant, Glen Innes",67 CHURCH ST ,GLEN INNES,2370,Glen Innes Severn,Vinnie Beniwal,,http://www.singingchefpizzapasta.com.au/,,,,0488 465 006
Roma Restaurant and Pizzeria,SHOP 1 406 WODONGA PL ,SOUTH ALBURY,2640,Albury,FIVE GOLDEN MOONS PTY LTD,61644575824.0,https://romarestaurant.com.au/,,,,0481 895 042
Freemasons Cessnock,8 CUMBERLAND ST ,CESSNOCK,2325,Cessnock,James Archer,,http://m.facebook.com/LodgeCessnock/,,,,
Masala Library by Sid,31 KENDAL ST ,COWRA,2794,Cowra,Siddhant KAPUR,,https://www.masalalibrarybysid.com/,,,,(02) 6305 7334
Down The Lane Dubbo,Lower Ground Floor 215 Macquarie St ,DUBBO,2830,Dubbo Regional,WC VENTURES PTY LIMITED,,http://www.downthelanedubbo.com.au/,,,,0407 334 334
Guzman y Gomez Frenchs Forest,"Tenancy 29 & 30, Ground Floor ",FRENCHS FOREST,2086,Northern Beaches,FF MEXICAN PTY LTD,72641081058.0,https://www.guzmanygomez.com.au/locations/frenchs-forest/,,,,(02) 8004 4550
JB & Sons Narrabeen,"Shop 1, 1421 Pittwater Road ",NARRABEEN,2101,Northern Beaches,JB & SONS NARRABEEN PTY LTD,35646445123.0,http://jbandsons.com.au/,,,,0424 373 594
northern United Rugby League Football Club Inc.,2 CASSIA CR ,GOONELLABAH,2480,Lismore,Nicole Roberts,,,,,,(02) 6628 0806
The Yorkshire Rose Bistro,48 OLD BARRENJOEY RD ,AVALON BEACH,2107,Northern Beaches,Richard Kaiser,,https://www.theyorkshirerose.com.au/,,,,(02) 9968 1655
Ben and Sum Co,"shops 4 and 5, 40 Terrigal Esplanade ",TERRIGAL,2260,Central Coast,SANVIR ENTERPRISES PTY LTD,64609674115.0,https://www.lemmysofficial.com/,,,,0451 711 609
Little-L Mona Vale,SHOP 21 10 PARK ST ,MONA VALE,2103,Northern Beaches,ALFRECSO PTY LTD,40669730296.0,https://little-l.com.au/stores/mona-vale/,,,,(02) 8924 5469
FELLINIS ITALIAN,Shop 15 Manly Wharf East Esplanade ,MANLY,2095,Northern Beaches,Burak Cebi,,https://fratellifresh.com.au/venues/manly/?utm_source=google&utm_medium=organic&utm_campaign=gmb&utm_content=manly,,,,(02) 9259 5674
Chica Chica,4 19-21  Broken Bay Road ,Ettalong Beach,2257,Central Coast,Teisha WORT,,http://chicachica.com.au/,,,,(02) 4343 1851
Orange City Council,259-267 SUMMER ST ,ORANGE,2800,Orange,Anthony Boland,,,,,,
Warbreccan Function Centre,388 WAKOOL RD ,DENILIQUIN,2710,Edward River,Caitrin Watson,,,,,,
Remington Orange,1517 FOREST RD ,ORANGE,2800,Orange,REMINGTON ORANGE PTY LTD,,https://orange.theremington.com.au/,,,,(02) 6361 6362
Ocean Project Cafe Restaurant,Shop 2 132 Kite Street ,ORANGE,2800,Orange,Ramraja LAMA,,https://www.oceanprojectcaferestaurant.com.au/,,,,(02) 5310 6437
Retro Soirees,47 ARGYLE ST ,PICTON,2571,Wollondilly,Rhiannon Smith,,https://thecelebrationsociety.com.au/,,,,1300 724 710
The Burrow Cabarita Beach,SHOP 1 36 TWEED COAST RD ,CABARITA BEACH,2488,Tweed,THE BURROW CABARITA BEACH PTY LTD,14643244777.0,https://theburrowcollective.com/,,,,0499 433 584
Teven Golf Course,1684 ELTHAM RD ,TEVEN,2478,Ballina,Curtis Zuber,,,,,,
Dumpling Bar,SHOP 59 253 PACIFIC HWY ,COFFS HARBOUR,2450,Coffs Harbour,D&B GROUP PTY LTD,66642111788.0,https://dumplingbarcoffs.com.au/,,,,0491 681 066
Luxburgs,115 THE ENTRANCE ROAD ,THE ENTRANCE,2261,Central Coast,Grant Leclere,,http://luxburgs.square.site/,,,,0423 135 366
H Boutique Hotel,770 MCDONALDS RD ,POKOLBIN,2320,Cessnock,Matthew Eade,,http://www.hboutiquehotel.com.au/,,,,(02) 4916 4329
QT Hotel East End,185 Hunter Street ,NEWCASTLE,2300,Newcastle,Michael Stamboulidis,,https://www.qthotels.com/newcastle/?utm_source=google&utm_medium=organic&utm_campaign=gmb,,,,(02) 6396 4000
Guzman y Gomez Bligh Park,Fast Food Outlet 1 752 George Street,SOUTH WINDSOR,2756,Hawkesbury,GUZMAN Y GOMEZ RESTAURANT GROUP PTY LIMITED,60123803216.0,https://www.guzmanygomez.com.au/locations/bligh-park/,,,,(02) 4504 8246
Kombi Keg North West Sydney,19 FERNADELL DR ,PITT TOWN,2756,Hawkesbury,Robert DE CELIS,,https://linktr.ee/kombikegnorthwestsydney.com.au,,,,0419 363 922
Maitland Street Collective,45 Maitland Street ,BRANXTON,2335,Cessnock,Heather Taylor,,https://maitland-st-collective.square.site/s/shop,,,,0417 697 747
Mellow Bistro,309 High Street ,MAITLAND,2320,Maitland,Thuc Ha Tieu,,https://mellowbistromaitland.com.au/,,,,(02) 4052 8891
Barrel N Brew,78 SANGER ST ,COROWA,2646,Federation,Alisha Coleman,,https://www.facebook.com/barrelnbrew/,,,,(02) 6073 6669
Nico&Kate,13/11 Constellation Close ,BYRON BAY,2481,Byron,nicolas blistene,,http://www.byrongeneralstore.com/,,,,
Kombi Keg Canberra,39 EVANS RD ,GOOGONG,2620,Queanbeyan-Palerang Regional,Martin Garrett,,,,,,
Social Serve,UNIT 8 8-14 UNDERWOOD ST ,PADDINGTON,2021,Woollahra,Iain Boyd,,,,,,
Cool Runnings Micro Bars,6 MAPLE DR ,ALSTONVILLE,2477,Ballina,Simon Plumb,,http://www.optionsinalstonville.weebly.com/,,,,(02) 6628 0090
The Gardens Wagga,43  TOM WOOD DR ,TURVEY PARK,2650,Wagga Wagga,Brent Castle,,https://www.thegardenswagga.com.au/,,,,(02) 6925 1767
Rocksalt at the Marina,SHOP 6 18 PARK ST ,PORT MACQUARIE,2444,Port Macquarie-Hastings,Marten Clark,,https://rocksaltmarina.com/,,,,(02) 6581 0501
Newcastle Theatre Company Incorporated,90 DE VITRE ST ,LAMBTON,2299,Newcastle,Newcastle Theatre Company Incorporated,,http://newcastletheatrecompany.com.au/,,,,(02) 4952 4958
Regal Plus,"Shop 1 Warabrook Shopping Centre, 3 Angophora Drive ",Warabrook,2304,Newcastle,KORPAN PTY LTD,,,,,,(02) 4960 0430
